<osm generator="chunks.py" version="0.6"><node id="-191736" lat="37.3043998925" lon="-122.07244401309" visible="true" />
  <node id="-191735" lat="37.3044287367" lon="-122.07238597553" visible="true" />
  <node id="-191734" lat="37.30451483837" lon="-122.0724530365" visible="true" />
  <node id="-191733" lat="37.30448599323" lon="-122.07251107409" visible="true" />
  <node id="-191730" lat="37.30558115089" lon="-122.07248195038" visible="true" />
  <node id="-191729" lat="37.30559091958" lon="-122.07241785732" visible="true" />
  <node id="-191728" lat="37.30569030156" lon="-122.07244159665" visible="true" />
  <node id="-191727" lat="37.30568053287" lon="-122.07250568867" visible="true" />
  <node id="-191724" lat="37.30535764745" lon="-122.07391489882" visible="true" />
  <node id="-191723" lat="37.30532249354" lon="-122.07384318596" visible="true" />
  <node id="-191722" lat="37.30535443149" lon="-122.07377936937" visible="true" />
  <node id="-191721" lat="37.30541179674" lon="-122.07377760551" visible="true" />
  <node id="-191720" lat="37.30544495814" lon="-122.07384234154" visible="true" />
  <node id="-191719" lat="37.30541764073" lon="-122.0739103079" visible="true" />
  <node id="-191718" lat="37.30541763983" lon="-122.07391030788" visible="true" />
  <node id="-191715" lat="37.30511578032" lon="-122.07475146549" visible="true" />
  <node id="-191714" lat="37.30511517194" lon="-122.07467249609" visible="true" />
  <node id="-191713" lat="37.30517262917" lon="-122.07467180212" visible="true" />
  <node id="-191712" lat="37.30517323754" lon="-122.07475077271" visible="true" />
  <node id="-191709" lat="37.30512378437" lon="-122.07464275375" visible="true" />
  <node id="-191708" lat="37.305124397" lon="-122.07454146088" visible="true" />
  <node id="-191707" lat="37.30508683435" lon="-122.07454110513" visible="true" />
  <node id="-191706" lat="37.30508740027" lon="-122.07444763974" visible="true" />
  <node id="-191705" lat="37.30520346725" lon="-122.07444874079" visible="true" />
  <node id="-191704" lat="37.30520283247" lon="-122.07455343138" visible="true" />
  <node id="-191703" lat="37.30515027847" lon="-122.07455293358" visible="true" />
  <node id="-191702" lat="37.30515020677" lon="-122.07456477116" visible="true" />
  <node id="-191701" lat="37.30520227237" lon="-122.07456526545" visible="true" />
  <node id="-191700" lat="37.30520179944" lon="-122.07464349351" visible="true" />
  <node id="-191699" lat="37.30520179942" lon="-122.07464349464" visible="true" />
  <node id="-191696" lat="37.30522174325" lon="-122.07443247269" visible="true" />
  <node id="-191695" lat="37.30526357863" lon="-122.07443261603" visible="true" />
  <node id="-191694" lat="37.30526334153" lon="-122.07454178154" visible="true" />
  <node id="-191693" lat="37.30522150523" lon="-122.07454163925" visible="true" />
  <node id="-2001148" lat="37.2897644496" lon="-122.099964474" version="1"><tag k="addr:housenumber" v="15060" /><tag k="addr:postcode" v="95014-5402" /><tag k="addr:street" v="Montebello Road" /></node><node id="-2001149" lat="37.2997722092" lon="-122.115790791" version="1"><tag k="addr:housenumber" v="17100" /><tag k="addr:postcode" v="95014-543" /><tag k="addr:street" v="Montebello Road" /></node><node id="-2001150" lat="37.2998547989" lon="-122.109838548" version="1"><tag k="addr:housenumber" v="16505" /><tag k="addr:postcode" v="95014-5441" /><tag k="addr:street" v="Montebello Road" /></node><node id="-2014583" lat="37.2943479385" lon="-122.090339208" version="1"><tag k="addr:housenumber" v="13100" /><tag k="addr:postcode" v="95014" /><tag k="addr:street" v="Montebello Road" /></node><node id="-2015120" lat="37.3028743024" lon="-122.076172764" version="1"><tag k="addr:housenumber" v="13326" /><tag k="addr:postcode" v="95014-542" /><tag k="addr:street" v="Stevens Canyon Road" /></node><node id="-2015121" lat="37.3028706795" lon="-122.076999719" version="1"><tag k="addr:housenumber" v="13851" /><tag k="addr:postcode" v="95014-541" /><tag k="addr:street" v="Stevens Canyon Road" /></node><node id="-2015123" lat="37.2768856837" lon="-122.11162947" version="1"><tag k="addr:housenumber" v="17952" /><tag k="addr:postcode" v="95014-5504" /><tag k="addr:street" v="Stevens Canyon Road" /></node><node id="-2015124" lat="37.2767583253" lon="-122.111467191" version="1"><tag k="addr:housenumber" v="17450" /><tag k="addr:postcode" v="95014-5515" /><tag k="addr:street" v="Stevens Canyon Road" /></node><node id="-2015125" lat="37.276662146" lon="-122.11138407" version="1"><tag k="addr:housenumber" v="17294" /><tag k="addr:postcode" v="95014-5515" /><tag k="addr:street" v="Stevens Canyon Road" /></node><node id="-2015126" lat="37.2765863907" lon="-122.111301531" version="1"><tag k="addr:housenumber" v="17288" /><tag k="addr:postcode" v="95014-5515" /><tag k="addr:street" v="Stevens Canyon Road" /></node><node id="-2015127" lat="37.2776812302" lon="-122.111197645" version="1"><tag k="addr:housenumber" v="17281" /><tag k="addr:postcode" v="95014-5501" /><tag k="addr:street" v="Stevens Canyon Road" /></node><node id="-2015128" lat="37.2774737431" lon="-122.110993178" version="1"><tag k="addr:housenumber" v="16891" /><tag k="addr:postcode" v="95014-5511" /><tag k="addr:street" v="Stevens Canyon Road" /></node><node id="-2015129" lat="37.2772540862" lon="-122.110738421" version="1"><tag k="addr:housenumber" v="16301" /><tag k="addr:postcode" v="95014-5512" /><tag k="addr:street" v="Stevens Canyon Road" /></node><node id="-2015130" lat="37.2771504338" lon="-122.110621017" version="1"><tag k="addr:housenumber" v="16221" /><tag k="addr:postcode" v="95014-5506" /><tag k="addr:street" v="Stevens Canyon Road" /></node><node id="-2015131" lat="37.2770812844" lon="-122.110465579" version="1"><tag k="addr:housenumber" v="16201" /><tag k="addr:postcode" v="95014-5506" /><tag k="addr:street" v="Stevens Canyon Road" /></node><node id="-2015136" lat="37.2944203775" lon="-122.103280116" version="1"><tag k="addr:housenumber" v="17050" /><tag k="addr:postcode" v="95014" /><tag k="addr:street" v="Montebello Road" /></node><node id="-2015137" lat="37.294771648" lon="-122.104281279" version="1"><tag k="addr:housenumber" v="18800" /><tag k="addr:postcode" v="95014-544" /><tag k="addr:street" v="Montebello Road" /></node><node id="-2015138" lat="37.2943999637" lon="-122.104269777" version="1"><tag k="addr:housenumber" v="17700" /><tag k="addr:postcode" v="95014-543" /><tag k="addr:street" v="Montebello Road" /></node><node id="-2015139" lat="37.2943301512" lon="-122.103196387" version="1"><tag k="addr:housenumber" v="18100" /><tag k="addr:postcode" v="95014-5445" /><tag k="addr:street" v="Montebello Road" /></node><node id="-2015140" lat="37.2941890537" lon="-122.103214517" version="1"><tag k="addr:housenumber" v="17655" /><tag k="addr:postcode" v="95014-5437" /><tag k="addr:street" v="Montebello Road" /></node><node id="-2015141" lat="37.2941523161" lon="-122.103428812" version="1"><tag k="addr:housenumber" v="17650" /><tag k="addr:postcode" v="95014-5410" /><tag k="addr:street" v="Montebello Road" /></node><node id="-2015142" lat="37.2944248567" lon="-122.103480495" version="1"><tag k="addr:housenumber" v="17601" /><tag k="addr:postcode" v="95014-5437" /><tag k="addr:street" v="Montebello Road" /></node><node id="-2015143" lat="37.2946760436" lon="-122.10426865" version="1"><tag k="addr:housenumber" v="17600" /><tag k="addr:postcode" v="95014-5410" /><tag k="addr:street" v="Montebello Road" /></node><node id="-2015144" lat="37.294600538" lon="-122.104228244" version="1"><tag k="addr:housenumber" v="17599" /><tag k="addr:postcode" v="95014-5437" /><tag k="addr:street" v="Montebello Road" /></node><node id="-2015145" lat="37.294129708" lon="-122.103639884" version="1"><tag k="addr:housenumber" v="17075" /><tag k="addr:postcode" v="95014-5439" /><tag k="addr:street" v="Montebello Road" /></node><node id="-2015146" lat="37.2942281615" lon="-122.104061585" version="1"><tag k="addr:housenumber" v="16105" /><tag k="addr:postcode" v="95014-5450" /><tag k="addr:street" v="Montebello Road" /></node><node id="-2015147" lat="37.294348194" lon="-122.104141732" version="1"><tag k="addr:housenumber" v="16006" /><tag k="addr:postcode" v="95014-5448" /><tag k="addr:street" v="Montebello Road" /></node><node id="-2015148" lat="37.294595083" lon="-122.104009516" version="1"><tag k="addr:housenumber" v="15986" /><tag k="addr:postcode" v="95014-5409" /><tag k="addr:street" v="Montebello Road" /></node><node id="-2015149" lat="37.2945369571" lon="-122.103934224" version="1"><tag k="addr:housenumber" v="15710" /><tag k="addr:postcode" v="95014-5409" /><tag k="addr:street" v="Montebello Road" /></node><node id="-2015167" lat="37.2756387732" lon="-122.107807108" version="1"><tag k="addr:housenumber" v="15853" /><tag k="addr:postcode" v="95014-5508" /><tag k="addr:street" v="Stevens Canyon Road" /></node><node id="-2015168" lat="37.2747809819" lon="-122.108530869" version="1"><tag k="addr:housenumber" v="15630" /><tag k="addr:postcode" v="95014-5503" /><tag k="addr:street" v="Stevens Canyon Road" /></node><node id="-2015169" lat="37.2746179898" lon="-122.108252473" version="1"><tag k="addr:housenumber" v="15602" /><tag k="addr:postcode" v="95014-5503" /><tag k="addr:street" v="Stevens Canyon Road" /></node><node id="-2015170" lat="37.2750836575" lon="-122.101340779" version="1"><tag k="addr:housenumber" v="16790" /><tag k="addr:postcode" v="95014-5513" /><tag k="addr:street" v="Stevens Canyon Road" /></node><node id="-2015171" lat="37.2929119553" lon="-122.097235862" version="1"><tag k="addr:housenumber" v="15101" /><tag k="addr:postcode" v="95014-543" /><tag k="addr:street" v="Montebello Road" /></node><node id="-2015227" lat="37.2751351231" lon="-122.107348651" version="1"><tag k="addr:housenumber" v="15555" /><tag k="addr:postcode" v="95014-5502" /><tag k="addr:street" v="Stevens Canyon Road" /></node><node id="-2015228" lat="37.2749439337" lon="-122.107127469" version="1"><tag k="addr:housenumber" v="15531" /><tag k="addr:postcode" v="95014-5517" /><tag k="addr:street" v="Stevens Canyon Road" /></node><node id="-2015229" lat="37.2747868431" lon="-122.106903713" version="1"><tag k="addr:housenumber" v="15527" /><tag k="addr:postcode" v="95014-5502" /><tag k="addr:street" v="Stevens Canyon Road" /></node><node id="-2015230" lat="37.2879846095" lon="-122.090457305" version="1"><tag k="addr:housenumber" v="13355" /><tag k="addr:postcode" v="95014-5425" /><tag k="addr:street" v="Montebello Road" /></node><node id="-2015231" lat="37.2898219598" lon="-122.090873372" version="1"><tag k="addr:housenumber" v="14045" /><tag k="addr:postcode" v="95014-5424" /><tag k="addr:street" v="Montebello Road" /></node><node id="-2015234" lat="37.2978106161" lon="-122.099414539" version="1"><tag k="addr:housenumber" v="15591" /><tag k="addr:postcode" v="95014-5452" /><tag k="addr:street" v="Swiss Creek Lane" /></node><node id="-2015467" lat="37.2980489586" lon="-122.099051295" version="1"><tag k="addr:housenumber" v="15595" /><tag k="addr:postcode" v="95014-5452" /><tag k="addr:street" v="Swiss Creek Lane" /></node><node id="-2015468" lat="37.2979826723" lon="-122.101659325" version="1"><tag k="addr:housenumber" v="15565" /><tag k="addr:postcode" v="95014-5452" /><tag k="addr:street" v="Swiss Creek Lane" /></node><node id="-2015493" lat="37.2776130745" lon="-122.111114403" version="1"><tag k="addr:housenumber" v="17251" /><tag k="addr:postcode" v="95014-5501" /><tag k="addr:street" v="Stevens Canyon Road" /></node><node id="-2015494" lat="37.277363348" lon="-122.110879905" version="1"><tag k="addr:housenumber" v="16531" /><tag k="addr:postcode" v="95014-5510" /><tag k="addr:street" v="Stevens Canyon Road" /></node><node id="-2015495" lat="37.2765179389" lon="-122.111122574" version="1"><tag k="addr:housenumber" v="16530" /><tag k="addr:postcode" v="95014-5507" /><tag k="addr:street" v="Stevens Canyon Road" /></node><node id="-2015546" lat="37.2855110826" lon="-122.080951461" version="1"><tag k="addr:housenumber" v="13325" /><tag k="addr:postcode" v="95014-5421" /><tag k="addr:street" v="Stevens Canyon Road" /></node><node id="-2015547" lat="37.2977700914" lon="-122.085798557" version="1"><tag k="addr:housenumber" v="12100" /><tag k="addr:postcode" v="95014-5443" /><tag k="addr:street" v="Stevens Canyon Road" /></node><node id="-2015548" lat="37.2754057187" lon="-122.107573351" version="1"><tag k="addr:housenumber" v="15601" /><tag k="addr:postcode" v="95014-5502" /><tag k="addr:street" v="Stevens Canyon Road" /></node><node id="-2015903" lat="37.2975129651" lon="-122.094606428" version="1"><tag k="addr:housenumber" v="13215" /><tag k="addr:postcode" v="95014-5442" /><tag k="addr:street" v="Peacock Court" /></node><node id="-2015904" lat="37.2992443094" lon="-122.094887377" version="1"><tag k="addr:housenumber" v="13228" /><tag k="addr:postcode" v="95014-5442" /><tag k="addr:street" v="Peacock Court" /></node><node id="-2015905" lat="37.2987310757" lon="-122.095365047" version="1"><tag k="addr:housenumber" v="13225" /><tag k="addr:postcode" v="95014-5442" /><tag k="addr:street" v="Peacock Court" /></node><node id="-2015909" lat="37.2984831773" lon="-122.09375847" version="1"><tag k="addr:housenumber" v="13220" /><tag k="addr:postcode" v="95014-5442" /><tag k="addr:street" v="Peacock Court" /></node><node id="-2015914" lat="37.2967585237" lon="-122.093769844" version="1"><tag k="addr:housenumber" v="13208" /><tag k="addr:postcode" v="95014-5442" /><tag k="addr:street" v="Peacock Court" /></node><node id="-2015915" lat="37.2961725562" lon="-122.094943206" version="1"><tag k="addr:housenumber" v="13205" /><tag k="addr:postcode" v="95014-5442" /><tag k="addr:street" v="Peacock Court" /></node><node id="-2015918" lat="37.2972773106" lon="-122.092556923" version="1"><tag k="addr:housenumber" v="13212" /><tag k="addr:postcode" v="95014-5442" /><tag k="addr:street" v="Peacock Court" /></node><node id="-2016291" lat="37.2991118654" lon="-122.090327164" version="1"><tag k="addr:housenumber" v="13001" /><tag k="addr:postcode" v="95014-5408" /><tag k="addr:street" v="Montebello Road" /></node><node id="-2016292" lat="37.2829335575" lon="-122.091753175" version="1"><tag k="addr:housenumber" v="13350" /><tag k="addr:postcode" v="95014-5407" /><tag k="addr:street" v="Montebello Road" /></node><node id="-2016293" lat="37.2870688647" lon="-122.089167558" version="1"><tag k="addr:housenumber" v="13360" /><tag k="addr:postcode" v="95014-5451" /><tag k="addr:street" v="Montebello Road" /></node><node id="-2016294" lat="37.2879274829" lon="-122.089602213" version="1"><tag k="addr:housenumber" v="13075" /><tag k="addr:postcode" v="95014-5408" /><tag k="addr:street" v="Montebello Road" /></node><node id="-2016295" lat="37.2884536569" lon="-122.090955878" version="1"><tag k="addr:housenumber" v="13811" /><tag k="addr:postcode" v="95014-5418" /><tag k="addr:street" v="Montebello Road" /></node><node id="-2016296" lat="37.2887782813" lon="-122.090225671" version="1"><tag k="addr:housenumber" v="13095" /><tag k="addr:postcode" v="95014-5408" /><tag k="addr:street" v="Montebello Road" /></node><node id="-2016297" lat="37.2887346324" lon="-122.102363251" version="1"><tag k="addr:housenumber" v="15070" /><tag k="addr:postcode" v="95014-5402" /><tag k="addr:street" v="Montebello Road" /></node><node id="-2016298" lat="37.2892353545" lon="-122.092611182" version="1"><tag k="addr:housenumber" v="13995" /><tag k="addr:postcode" v="95014-5456" /><tag k="addr:street" v="Montebello Road" /></node><node id="-2016299" lat="37.2897876816" lon="-122.092698716" version="1"><tag k="addr:housenumber" v="14025" /><tag k="addr:postcode" v="95014-5424" /><tag k="addr:street" v="Montebello Road" /></node><node id="-2016300" lat="37.2895909981" lon="-122.096024033" version="1"><tag k="addr:housenumber" v="15055" /><tag k="addr:postcode" v="95014-5429" /><tag k="addr:street" v="Montebello Road" /></node><node id="-2016301" lat="37.2898300237" lon="-122.099161769" version="1"><tag k="addr:housenumber" v="15030" /><tag k="addr:postcode" v="95014-5470" /><tag k="addr:street" v="Montebello Road" /></node><node id="-2016302" lat="37.2908200745" lon="-122.096646429" version="1"><tag k="addr:housenumber" v="15120" /><tag k="addr:postcode" v="95014-5413" /><tag k="addr:street" v="Montebello Road" /></node><node id="-2016303" lat="37.2903899521" lon="-122.093934408" version="1"><tag k="addr:housenumber" v="14500" /><tag k="addr:postcode" v="95014-5457" /><tag k="addr:street" v="Montebello Road" /></node><node id="-2016304" lat="37.2898074076" lon="-122.097428678" version="1"><tag k="addr:housenumber" v="15010" /><tag k="addr:postcode" v="95014-5426" /><tag k="addr:street" v="Montebello Road" /></node><node id="-2016305" lat="37.2919266012" lon="-122.097855674" version="1"><tag k="addr:housenumber" v="15040" /><tag k="addr:postcode" v="95014-5402" /><tag k="addr:street" v="Montebello Road" /></node><node id="-2016306" lat="37.2939150506" lon="-122.093989191" version="1"><tag k="addr:housenumber" v="13231" /><tag k="addr:postcode" v="95014-5408" /><tag k="addr:street" v="Montebello Road" /></node><node id="-2016307" lat="37.2914693394" lon="-122.099735096" version="1"><tag k="addr:housenumber" v="15100" /><tag k="addr:postcode" v="95014-5413" /><tag k="addr:street" v="Montebello Road" /></node><node id="-2016308" lat="37.2917416893" lon="-122.093609221" version="1"><tag k="addr:housenumber" v="13261" /><tag k="addr:postcode" v="95014-5408" /><tag k="addr:street" v="Montebello Road" /></node><node id="-2016309" lat="37.2924169281" lon="-122.100592955" version="1"><tag k="addr:housenumber" v="15150" /><tag k="addr:postcode" v="95014-5413" /><tag k="addr:street" v="Montebello Road" /></node><node id="-2016310" lat="37.2930056098" lon="-122.099928971" version="1"><tag k="addr:housenumber" v="15042" /><tag k="addr:postcode" v="95014-5427" /><tag k="addr:street" v="Montebello Road" /></node><node id="-2016311" lat="37.2901908475" lon="-122.108777406" version="1"><tag k="addr:housenumber" v="15050" /><tag k="addr:postcode" v="95014-5402" /><tag k="addr:street" v="Montebello Road" /></node><node id="-2016312" lat="37.2940789892" lon="-122.101477015" version="1"><tag k="addr:housenumber" v="15681" /><tag k="addr:postcode" v="95014-5404" /><tag k="addr:street" v="Montebello Road" /></node><node id="-2016314" lat="37.2992480909" lon="-122.102389939" version="1"><tag k="addr:housenumber" v="15671" /><tag k="addr:postcode" v="95014-5404" /><tag k="addr:street" v="Montebello Road" /></node><node id="-2016315" lat="37.2992603011" lon="-122.103887199" version="1"><tag k="addr:housenumber" v="15601" /><tag k="addr:postcode" v="95014-5404" /><tag k="addr:street" v="Montebello Road" /></node><node id="-2016327" lat="37.29596269" lon="-122.094139027" version="1"><tag k="addr:housenumber" v="13201" /><tag k="addr:postcode" v="95014-5420" /><tag k="addr:street" v="Montebello Road" /></node><node id="-2016328" lat="37.2957751192" lon="-122.102725743" version="1"><tag k="addr:housenumber" v="15571" /><tag k="addr:postcode" v="95014-5444" /><tag k="addr:street" v="Montebello Road" /></node><node id="-2016329" lat="37.2959231041" lon="-122.103413207" version="1"><tag k="addr:housenumber" v="15591" /><tag k="addr:postcode" v="95014-5444" /><tag k="addr:street" v="Montebello Road" /></node><node id="-2016330" lat="37.2961817748" lon="-122.104133553" version="1"><tag k="addr:housenumber" v="15611" /><tag k="addr:postcode" v="95014-5404" /><tag k="addr:street" v="Montebello Road" /></node><node id="-2016938" lat="37.2978545217" lon="-122.100293489" version="1"><tag k="addr:housenumber" v="15545" /><tag k="addr:postcode" v="95014" /><tag k="addr:street" v="Swiss Creek Lane" /></node><node id="-2017181" lat="37.2769964168" lon="-122.111730175" version="1"><tag k="addr:housenumber" v="18000" /><tag k="addr:postcode" v="95014" /><tag k="addr:street" v="Stevens Canyon Road" /></node><node id="-2017190" lat="37.2996369501" lon="-122.08510081" version="1"><tag k="addr:housenumber" v="11998" /><tag k="addr:postcode" v="95014" /><tag k="addr:street" v="Stevens Canyon Road" /></node><way id="-191737" version="1"><tag k="building" v="yes" /><tag k="height" v="3.4" /><nd ref="-191733" /><nd ref="-191734" /><nd ref="-191735" /><nd ref="-191736" /><nd ref="-191733" /></way><way id="-191731" version="1"><tag k="building" v="yes" /><tag k="height" v="6.7" /><nd ref="-191727" /><nd ref="-191728" /><nd ref="-191729" /><nd ref="-191730" /><nd ref="-191727" /></way><way id="-191725" version="1"><tag k="building" v="yes" /><tag k="height" v="5.5" /><nd ref="-191718" /><nd ref="-191719" /><nd ref="-191720" /><nd ref="-191721" /><nd ref="-191722" /><nd ref="-191723" /><nd ref="-191724" /><nd ref="-191718" /></way><way id="-191716" version="1"><tag k="building" v="yes" /><tag k="height" v="0.0" /><nd ref="-191712" /><nd ref="-191713" /><nd ref="-191714" /><nd ref="-191715" /><nd ref="-191712" /></way><way id="-191710" version="1"><tag k="building" v="yes" /><tag k="height" v="6.4" /><nd ref="-191699" /><nd ref="-191700" /><nd ref="-191701" /><nd ref="-191702" /><nd ref="-191703" /><nd ref="-191704" /><nd ref="-191705" /><nd ref="-191706" /><nd ref="-191707" /><nd ref="-191708" /><nd ref="-191709" /><nd ref="-191699" /></way><way id="-191697" version="1"><tag k="building" v="yes" /><tag k="height" v="8.8" /><nd ref="-191693" /><nd ref="-191694" /><nd ref="-191695" /><nd ref="-191696" /><nd ref="-191693" /></way></osm>